{
  "links" : {
    "next" : "https://api.nasa.gov/neo/rest/v1/feed?start_date=2015-11-23&end_date=2015-11-23&detailed=true&api_key=t0TVs3DtDT2H8Oy2Zy8m2eVrNsAVKAexjcZXUckd",
    "prev" : "https://api.nasa.gov/neo/rest/v1/feed?start_date=2015-11-21&end_date=2015-11-21&detailed=true&api_key=t0TVs3DtDT2H8Oy2Zy8m2eVrNsAVKAexjcZXUckd",
    "self" : "https://api.nasa.gov/neo/rest/v1/feed?start_date=2015-11-22&end_date=2015-11-22&detailed=true&api_key=t0TVs3DtDT2H8Oy2Zy8m2eVrNsAVKAexjcZXUckd"
  },
  "element_count" : 7,
  "near_earth_objects" : {
    "2015-11-22" : [ {
      "links" : {
        "self" : "https://api.nasa.gov/neo/rest/v1/neo/3729836?api_key=t0TVs3DtDT2H8Oy2Zy8m2eVrNsAVKAexjcZXUckd"
      },
      "neo_reference_id" : "3729836",
      "name" : "(2015 TW144)",
      "nasa_jpl_url" : "http://ssd.jpl.nasa.gov/sbdb.cgi?sstr=3729836",
      "absolute_magnitude_h" : 20.7,
      "estimated_diameter" : {
        "kilometers" : {
          "estimated_diameter_min" : 0.1925550782,
          "estimated_diameter_max" : 0.4305662442
        },
        "meters" : {
          "estimated_diameter_min" : 192.5550781879,
          "estimated_diameter_max" : 430.566244241
        },
        "miles" : {
          "estimated_diameter_min" : 0.1196481415,
          "estimated_diameter_max" : 0.2675413778
        },
        "feet" : {
          "estimated_diameter_min" : 631.7424027221,
          "estimated_diameter_max" : 1412.6189567557
        }
      },
      "is_potentially_hazardous_asteroid" : false,
      "close_approach_data" : [ {
        "close_approach_date" : "2015-11-22",
        "epoch_date_close_approach" : 1448179200000,
        "relative_velocity" : {
          "kilometers_per_second" : "3.6060903985",
          "kilometers_per_hour" : "12981.9254345831",
          "miles_per_hour" : "8066.4636123941"
        },
        "miss_distance" : {
          "astronomical" : "0.2418949797",
          "lunar" : "94.0971450806",
          "kilometers" : "36186972",
          "miles" : "22485542"
        },
        "orbiting_body" : "Earth"
      } ],
      "orbital_data" : {
        "orbit_id" : "57",
        "orbit_determination_date" : "2017-04-06 08:31:28",
        "orbit_uncertainty" : "4",
        "minimum_orbit_intersection" : ".200779",
        "jupiter_tisserand_invariant" : "3.952",
        "epoch_osculation" : "2458000.5",
        "eccentricity" : ".3768562266647529",
        "semi_major_axis" : "1.812696594999047",
        "inclination" : "8.439563733505027",
        "ascending_node_longitude" : "192.1712209649922",
        "orbital_period" : "891.4276593541002",
        "perihelion_distance" : "1.129570596119661",
        "perihelion_argument" : "250.1972534847729",
        "aphelion_distance" : "2.495822593878434",
        "perihelion_time" : "2458271.109825568353",
        "mean_anomaly" : "250.7151509353052",
        "mean_motion" : ".403846567045995",
        "equinox" : "J2000"
      }
    }, {
      "links" : {
        "self" : "https://api.nasa.gov/neo/rest/v1/neo/3729846?api_key=t0TVs3DtDT2H8Oy2Zy8m2eVrNsAVKAexjcZXUckd"
      },
      "neo_reference_id" : "3729846",
      "name" : "(2015 TH145)",
      "nasa_jpl_url" : "http://ssd.jpl.nasa.gov/sbdb.cgi?sstr=3729846",
      "absolute_magnitude_h" : 20.1,
      "estimated_diameter" : {
        "kilometers" : {
          "estimated_diameter_min" : 0.2538370294,
          "estimated_diameter_max" : 0.5675968529
        },
        "meters" : {
          "estimated_diameter_min" : 253.8370293645,
          "estimated_diameter_max" : 567.5968528656
        },
        "miles" : {
          "estimated_diameter_min" : 0.1577269688,
          "estimated_diameter_max" : 0.3526882241
        },
        "feet" : {
          "estimated_diameter_min" : 832.7986794202,
          "estimated_diameter_max" : 1862.1944587557
        }
      },
      "is_potentially_hazardous_asteroid" : true,
      "close_approach_data" : [ {
        "close_approach_date" : "2015-11-22",
        "epoch_date_close_approach" : 1448179200000,
        "relative_velocity" : {
          "kilometers_per_second" : "18.0716800504",
          "kilometers_per_hour" : "65058.0481815995",
          "miles_per_hour" : "40424.5411048389"
        },
        "miss_distance" : {
          "astronomical" : "0.2412337227",
          "lunar" : "93.8399200439",
          "kilometers" : "36088052",
          "miles" : "22424076"
        },
        "orbiting_body" : "Earth"
      } ],
      "orbital_data" : {
        "orbit_id" : "20",
        "orbit_determination_date" : "2017-04-06 08:31:25",
        "orbit_uncertainty" : "6",
        "minimum_orbit_intersection" : ".00298172",
        "jupiter_tisserand_invariant" : "2.781",
        "epoch_osculation" : "2458000.5",
        "eccentricity" : ".7159933156724793",
        "semi_major_axis" : "2.969538961240358",
        "inclination" : "12.77748029366168",
        "ascending_node_longitude" : "351.8912822797103",
        "orbital_period" : "1869.097551027204",
        "perihelion_distance" : ".8433689143632642",
        "perihelion_argument" : "128.946675137289",
        "aphelion_distance" : "5.095709008117452",
        "perihelion_time" : "2457386.637604463101",
        "mean_anomaly" : "118.2337766543184",
        "mean_motion" : ".1926063194519484",
        "equinox" : "J2000"
      }
    }, {
      "links" : {
        "self" : "https://api.nasa.gov/neo/rest/v1/neo/3735469?api_key=t0TVs3DtDT2H8Oy2Zy8m2eVrNsAVKAexjcZXUckd"
      },
      "neo_reference_id" : "3735469",
      "name" : "(2015 WZ1)",
      "nasa_jpl_url" : "http://ssd.jpl.nasa.gov/sbdb.cgi?sstr=3735469",
      "absolute_magnitude_h" : 29.6,
      "estimated_diameter" : {
        "kilometers" : {
          "estimated_diameter_min" : 0.0031956189,
          "estimated_diameter_max" : 0.007145621
        },
        "meters" : {
          "estimated_diameter_min" : 3.1956188672,
          "estimated_diameter_max" : 7.1456210173
        },
        "miles" : {
          "estimated_diameter_min" : 0.0019856649,
          "estimated_diameter_max" : 0.0044400817
        },
        "feet" : {
          "estimated_diameter_min" : 10.4843142043,
          "estimated_diameter_max" : 23.4436392583
        }
      },
      "is_potentially_hazardous_asteroid" : false,
      "close_approach_data" : [ {
        "close_approach_date" : "2015-11-22",
        "epoch_date_close_approach" : 1448179200000,
        "relative_velocity" : {
          "kilometers_per_second" : "16.5023003345",
          "kilometers_per_hour" : "59408.281204326",
          "miles_per_hour" : "36913.9956183213"
        },
        "miss_distance" : {
          "astronomical" : "0.0040763276",
          "lunar" : "1.585691452",
          "kilometers" : "609809.9375",
          "miles" : "378918.34375"
        },
        "orbiting_body" : "Earth"
      } ],
      "orbital_data" : {
        "orbit_id" : "4",
        "orbit_determination_date" : "2017-04-06 08:30:28",
        "orbit_uncertainty" : "7",
        "minimum_orbit_intersection" : ".00317053",
        "jupiter_tisserand_invariant" : "3.302",
        "epoch_osculation" : "2458000.5",
        "eccentricity" : ".6614602620150414",
        "semi_major_axis" : "2.240192144908398",
        "inclination" : "5.787605345654005",
        "ascending_node_longitude" : "58.49588096765906",
        "orbital_period" : "1224.69045198337",
        "perihelion_distance" : ".7583940617732515",
        "perihelion_argument" : "67.11830653216417",
        "aphelion_distance" : "3.721990228043545",
        "perihelion_time" : "2457390.267914603689",
        "mean_anomaly" : "179.3788384541559",
        "mean_motion" : ".2939518303723074",
        "equinox" : "J2000"
      }
    } ]
  }
}